[{"OBJECT_NAME":"STARLINK-3294","OBJECT_ID":"2022-001AC","EPOCH":"2026-03-09T12:00:28.690848","MEAN_MOTION":15.08832734,"ECCENTRICITY":0.00014445,"INCLINATION":53.2176,"RA_OF_ASC_NODE":169.9689,"ARG_OF_PERICENTER":103.8917,"MEAN_ANOMALY":256.2236,"EPHEMERIS_TYPE":0,"CLASSIFICATION_TYPE":"U","NORAD_CAT_ID":50829,"ELEMENT_SET_NO":999,"REV_AT_EPOCH":23037,"BSTAR":-3.8126067e-5,"MEAN_MOTION_DOT":-8.95e-6,"MEAN_MOTION_DDOT":0},{"OBJECT_NAME":"RAPIDEYE 3","OBJECT_ID":"2008-040D","EPOCH":"2026-03-09T19:34:21.496512","MEAN_MOTION":15.06489596,"ECCENTRICITY":0.00114187,"INCLINATION":97.3959,"RA_OF_ASC_NODE":102.9968,"ARG_OF_PERICENTER":27.1842,"MEAN_ANOMALY":332.9981,"EPHEMERIS_TYPE":0,"CLASSIFICATION_TYPE":"U","NORAD_CAT_ID":33315,"ELEMENT_SET_NO":999,"REV_AT_EPOCH":95131,"BSTAR":0.00019030529,"MEAN_MOTION_DOT":2.754e-5,"MEAN_MOTION_DDOT":0}]
